     2              NAVIGATION DATA                         RINEX VERSION / TYPE
CCRINEXN V1.6.0 UX  CDDIS               12-JUL-25 16:53     PGM / RUN BY / DATE 
IGS BROADCAST EPHEMERIS FILE                                COMMENT             
    0.1118D-07  0.2235D-07 -0.5960D-07 -0.1192D-06          ION ALPHA           
    0.1065D+06  0.1475D+06 -0.6554D+05 -0.3932D+06          ION BETA            
   -0.931322574616D-09 0.976996261670D-14   147456     2375 DELTA-UTC: A0,A1,T,W
    18                                                      LEAP SECONDS        
                                                            END OF HEADER       
27 25  7 12 10  0  0.0-0.235987827182D-04 0.227373675443D-12 0.000000000000D+00
    0.250000000000D+02 0.229687500000D+02 0.447947230229D-08 0.247369026692D+01
    0.105611979961D-05 0.134356936905D-01 0.107549130917D-04 0.515365679932D+04
    0.554400000000D+06-0.614672899246D-07-0.236169837422D-01-0.201165676117D-06
    0.956359473422D+00 0.168656250000D+03 0.849752124273D+00-0.763067499110D-08
   -0.478234206089D-09 0.100000000000D+01 0.237400000000D+04 0.000000000000D+00
    0.200000000000D+01 0.000000000000D+00 0.232830600000D-08 0.250000000000D+02
    0.547260000000D+06 0.400000000000D+01 0.000000000000D+00 0.000000000000D+00
28 25  7 12 10  0  0.0-0.631025526673D-03-0.272848410532D-11 0.000000000000D+00
    0.530000000000D+02-0.212500000000D+01 0.432196574151D-08-0.178501603811D+00
    0.614672899246D-07 0.325615284964D-03 0.932440161705D-05 0.515364198112D+04
    0.554400000000D+06 0.372529029846D-08-0.213452496950D+01-0.577419996262D-07
    0.961452616864D+00 0.197500000000D+03 0.122848478412D+00-0.783675500373D-08
    0.672885171225D-09 0.100000000000D+01 0.237400000000D+04 0.000000000000D+00
    0.200000000000D+01 0.000000000000D+00-0.931322600000D-08 0.309000000000D+03
    0.551970000000D+06 0.400000000000D+01 0.000000000000D+00 0.000000000000D+00
30 25  7 12 10  0  0.0-0.944221392274D-04 0.103455022327D-10 0.000000000000D+00
    0.109000000000D+03 0.759375000000D+01 0.504556731099D-08-0.613318468593D+00
    0.590458512306D-06 0.771202566102D-02 0.953301787376D-05 0.515365317154D+04
    0.554400000000D+06 0.558793544769D-07-0.211167964725D+01 0.176951289177D-06
    0.935628470098D+00 0.182343750000D+03-0.235550759456D+01-0.826320133836D-08
    0.755745765559D-09 0.100000000000D+01 0.237400000000D+04 0.000000000000D+00
    0.200000000000D+01 0.000000000000D+00 0.372529029846D-08 0.109000000000D+03
    0.547218000000D+06 0.400000000000D+01 0.000000000000D+00 0.000000000000D+00
31 25  7 12 10  0  0.0-0.200548209250D-03 0.136424205266D-11 0.000000000000D+00
    0.132000000000D+03 0.903125000000D+01 0.456733310490D-08-0.135769983520D+01
    0.622123479843D-06 0.106036142679D-01 0.866316258907D-05 0.515369180679D+04
    0.554400000000D+06 0.230967998505D-06-0.208290991054D+01-0.558793544769D-08
    0.954249067801D+00 0.200531250000D+03 0.837013334999D+00-0.790532928870D-08
    0.699672001290D-09 0.100000000000D+01 0.237400000000D+04 0.000000000000D+00
    0.200000000000D+01 0.000000000000D+00-0.135041773319D-07 0.132000000000D+03
    0.553722000000D+06 0.400000000000D+01 0.000000000000D+00 0.000000000000D+00
32 25  7 12 10  0  0.0-0.395733863115D-03 0.118234311230D-10 0.000000000000D+00
    0.330000000000D+02-0.126875000000D+03 0.388266172845D-08 0.312180143762D+01
   -0.648386776447D-05 0.859161629342D-02 0.867806375027D-05 0.515363877487D+04
    0.554400000000D+06 0.558793544769D-08 0.312069836813D+01-0.689178705216D-07
    0.965859075336D+00 0.212906250000D+03-0.205911307273D+01-0.759960226822D-08
   -0.282154610015D-10 0.100000000000D+01 0.237400000000D+04 0.000000000000D+00
    0.200000000000D+01 0.000000000000D+00 0.931322600000D-09 0.330000000000D+02
    0.547260000000D+06 0.400000000000D+01 0.000000000000D+00 0.000000000000D+00
 2 25  7 12 11 59 44.0-0.123825389892D-03 0.898126018001D-11 0.000000000000D+00
    0.700000000000D+01 0.137125000000D+03 0.420660379336D-08-0.245650750703D+01
    0.733137130737D-05 0.164345774101D-01 0.717863440514D-05 0.515369266129D+04
    0.561584000000D+06-0.260770320892D-07 0.949318003980D+00 0.270083546638D-06
    0.965384808998D+00 0.242125000000D+03-0.961378138241D+00-0.768496296670D-08
    0.177150236161D-09 0.100000000000D+01 0.237400000000D+04 0.000000000000D+00
    0.200000000000D+01 0.000000000000D+00-0.176951289177D-07 0.700000000000D+01
    0.554526000000D+06 0.400000000000D+01 0.000000000000D+00 0.000000000000D+00
17 25  7 12 11 59 44.0 0.194362364709D-03-0.164845914696D-10 0.000000000000D+00
    0.180000000000D+02 0.408437500000D+02 0.433803783955D-08-0.282995571911D+01
    0.220350921154D-05 0.130696232664D-01 0.108648091555D-04 0.515371973610D+04
    0.561584000000D+06 0.104308128357D-06 0.473767102530D-01 0.225380063057D-06
    0.963069706027D+00 0.168125000000D+03-0.120731063658D+01-0.751209862335D-08
   -0.372872674501D-09 0.100000000000D+01 0.237400000000D+04 0.000000000000D+00
    0.200000000000D+01 0.000000000000D+00-0.111758708954D-07 0.180000000000D+02
    0.558576000000D+06 0.400000000000D+01 0.000000000000D+00 0.000000000000D+00
24 25  7 12 11 59 44.0-0.359691679478D-03 0.943600753089D-11 0.000000000000D+00
    0.340000000000D+02-0.156562500000D+02 0.490198990184D-08 0.159716977297D+01
   -0.884756445885D-06 0.169093832374D-01 0.104978680611D-04 0.515367595673D+04
    0.561584000000D+06-0.363215804100D-06-0.221051956849D+01-0.145286321640D-06
    0.934382651988D+00 0.165406250000D+03 0.107207949728D+01-0.823105714228D-08
    0.653241495845D-09 0.100000000000D+01 0.237400000000D+04 0.000000000000D+00
    0.200000000000D+01 0.000000000000D+00 0.232830643654D-08 0.340000000000D+02
    0.554418000000D+06 0.400000000000D+01 0.000000000000D+00 0.000000000000D+00
30 25  7 12 11 59 44.0-0.943476334214D-04 0.103455022327D-10 0.000000000000D+00
    0.130000000000D+02 0.108125000000D+02 0.494699177635D-08 0.434558883567D+00
    0.640749931335D-06 0.771251332480D-02 0.953674316406D-05 0.515365412331D+04
    0.561584000000D+06-0.156462192535D-06-0.211173823712D+01 0.229105353355D-06
    0.935633915080D+00 0.183968750000D+03-0.235552254266D+01-0.817426906255D-08
    0.647526972097D-09 0.100000000000D+01 0.237400000000D+04 0.000000000000D+00
    0.200000000000D+01 0.000000000000D+00 0.372529029846D-08 0.130000000000D+02
    0.554418000000D+06 0.400000000000D+01 0.000000000000D+00 0.000000000000D+00
31 25  7 12 11 59 44.0-0.200540293008D-03 0.136424205266D-11 0.000000000000D+00
    0.120000000000D+02 0.468750000000D+01 0.454768942952D-08-0.309857701331D+00
    0.484287738800D-06 0.106032777112D-01 0.924617052078D-05 0.515369145203D+04
    0.561584000000D+06 0.596046447754D-07-0.208296733593D+01 0.132247805595D-06
    0.954253168361D+00 0.199250000000D+03 0.837007300462D+00-0.808569394446D-08
    0.667884962947D-09 0.100000000000D+01 0.237400000000D+04 0.000000000000D+00
    0.200000000000D+01 0.000000000000D+00-0.135041800000D-07 0.120000000000D+02
    0.556230000000D+06 0.400000000000D+01 0.000000000000D+00 0.000000000000D+00
 1 25  7 12 12  0  0.0 0.313530210406D-03 0.818545231596D-11 0.000000000000D+00
    0.167000000000D+03 0.122875000000D+03 0.457661920599D-08 0.213160193922D+01
    0.645965337753D-05 0.593440490775D-03 0.569596886635D-05 0.515372035790D+04
    0.561600000000D+06-0.558793544769D-07 0.111302625687D+01 0.800937414169D-07
    0.959265336360D+00 0.268562500000D+03 0.199280729825D+00-0.816962601200D-08
    0.211794536378D-09 0.100000000000D+01 0.237400000000D+04 0.000000000000D+00
    0.280000000000D+01 0.000000000000D+00-0.884756445885D-08 0.679000000000D+03
    0.554418000000D+06 0.400000000000D+01 0.000000000000D+00 0.000000000000D+00
 2 25  7 12 12  0  0.0-0.123826786876D-03 0.898126018001D-11 0.000000000000D+00
    0.126000000000D+03 0.137125000000D+03 0.420660379336D-08-0.245417389522D+01
    0.733137130737D-05 0.164345748490D-01 0.717863440514D-05 0.515369267845D+04
    0.561600000000D+06-0.260770320892D-07 0.949317891335D+00 0.270083546638D-06
    0.965384813387D+00 0.242125000000D+03-0.961378154333D+00-0.768496296670D-08
    0.177150236161D-09 0.100000000000D+01 0.237400000000D+04 0.000000000000D+00
    0.280000000000D+01 0.000000000000D+00-0.176951289177D-07 0.126000000000D+03
    0.554418000000D+06 0.400000000000D+01 0.000000000000D+00 0.000000000000D+00
 3 25  7 12 12  0  0.0 0.691347755492D-03-0.136424205266D-11 0.000000000000D+00
    0.108000000000D+03-0.233437500000D+02 0.411981446395D-08 0.178508096242D+00
   -0.117160379887D-05 0.641030399129D-02 0.108219683170D-05 0.515374915314D+04
    0.561600000000D+06-0.391155481338D-07 0.209317982660D+01 0.447034835815D-07
    0.990132348998D+00 0.372218750000D+03 0.119941441190D+01-0.826105839195D-08
   -0.218223375594D-09 0.100000000000D+01 0.237400000000D+04 0.000000000000D+00
    0.200000000000D+01 0.000000000000D+00 0.139698386192D-08 0.108000000000D+03
    0.556518000000D+06 0.400000000000D+01 0.000000000000D+00 0.000000000000D+00
 4 25  7 12 12  0  0.0 0.588962342590D-03 0.409272615798D-11 0.000000000000D+00
    0.970000000000D+02-0.117500000000D+03 0.396659379598D-08-0.309327697229D+01
   -0.615417957306D-05 0.333982869051D-02 0.909902155399D-05 0.515361090469D+04
    0.561600000000D+06-0.298023223877D-07-0.311615706811D+01-0.186264514923D-08
    0.968722368821D+00 0.207906250000D+03-0.292521964389D+01-0.774139388870D-08
   -0.100004165575D-09 0.100000000000D+01 0.237400000000D+04 0.000000000000D+00
    0.200000000000D+01 0.000000000000D+00-0.465661287308D-08 0.353000000000D+03
    0.561468000000D+06 0.400000000000D+01 0.000000000000D+00 0.000000000000D+00
